{"type": "FeatureCollection", "metadata": {"total": 197, "chicago": 151, "suburban_cook": 46, "primary_source": "CDPH ArcGIS Harm_Reduction_Boxes FeatureServer/60 (151 active Chicago locations)", "supplemental": "Cook County Health (courthouses/CTA), suburban Cook County map, West Side Task Force"}, "features": [{"type": "Feature", "geometry": {"type": "Point", "coordinates": [-87.7048260453302, 41.84965803546832]}, "properties": {"name": "Little Village Branch", "address": "2311 S Kedzie Ave, Chicago, IL 60623", "city": "Chicago", "zip": "60623", "type": "chicago_public_library", "operator": "Chicago Public Library", "community_area": "South Lawndale", "ward": 12, "phone": "(312) 745-1862", "source": "CDPH ArcGIS Harm_Reduction_Boxes (live)", "in_chicago": true}}, {"type": "Feature", "geometry": {"type": "Point", "coordinates": [-87.62825815696415, 41.876289333680866]}, "properties": {"name": "Harold Washington Center Branch", "address": "400 S State St, Chicago, IL 60605", "city": "Chicago", "zip": "60605", "type": "chicago_public_library", "operator": "Chicago Public Library", "community_area": "Loop", "ward": 4, "phone": "(312) 747-4300", "source": "CDPH ArcGIS Harm_Reduction_Boxes (live)", "in_chicago": true}}, {"type": "Feature", "geometry": {"type": "Point", "coordinates": [-87.67955779752643, 41.88103753669358]}, "properties": {"name": "Manning Branch", "address": "6 S. Hoyne Ave, Chicago, IL 60612", "city": "Chicago", "zip": "60612", "type": "chicago_public_library", "operator": "Chicago Public Library", "community_area": "Near West Side", "ward": 27, "phone": "(312) 746-6800", "source": "CDPH ArcGIS Harm_Reduction_Boxes (live)", "in_chicago": true}}, {"type": "Feature", "geometry": {"type": "Point", "coordinates": [-87.68444355465955, 41.96282079923217]}, "properties": {"name": "Sulzer Regional Branch", "address": "4455 N Lincoln Ave, Chicago, IL 60625", "city": "Chicago", "zip": "60625", "type": "chicago_public_library", "operator": "Chicago Public Library", "community_area": "Lincoln Square", "ward": 47, "phone": "(312) 744-7616", "source": "CDPH ArcGIS Harm_Reduction_Boxes (live)", "in_chicago": true}}, {"type": "Feature", "geometry": {"type": "Point", "coordinates": [-87.65812968788552, 41.9255994015464]}, "properties": {"name": "Lincoln Park Branch", "address": "1150 W Fullerton Ave, Chicago, IL 60614", "city": "Chicago", "zip": "60614", "type": "chicago_public_library", "operator": "Chicago Public Library", "community_area": "Lincoln Park", "ward": 43, "phone": "(312) 744-1926", "source": "CDPH ArcGIS Harm_Reduction_Boxes (live)", "in_chicago": true}}, {"type": "Feature", "geometry": {"type": "Point", "coordinates": [-87.64311959324554, 41.678056800149164]}, "properties": {"name": "West Pullman Branch", "address": "830 W 119th St, Chicago, IL 60643", "city": "Chicago", "zip": "60643", "type": "chicago_public_library", "operator": "Chicago Public Library", "community_area": "West Pullman", "ward": 34, "phone": "(312) 747-1425", "source": "CDPH ArcGIS Harm_Reduction_Boxes (live)", "in_chicago": true}}, {"type": "Feature", "geometry": {"type": "Point", "coordinates": [-87.81396223931543, 41.9430893874356]}, "properties": {"name": "Dunning Branch", "address": "7455 W Cornelia Ave, Chicago, IL 60634", "city": "Chicago", "zip": "60634", "type": "chicago_public_library", "operator": "Chicago Public Library", "community_area": "Dunning", "ward": 38, "phone": "(312) 743-0480", "source": "CDPH ArcGIS Harm_Reduction_Boxes (live)", "in_chicago": true}}, {"type": "Feature", "geometry": {"type": "Point", "coordinates": [-87.77974143955167, 41.953261874866016]}, "properties": {"name": "Austin-Irving Branch", "address": "6100 W Irving Park Rd, Chicago, IL 60634", "city": "Chicago", "zip": "60634", "type": "chicago_public_library", "operator": "Chicago Public Library", "community_area": "Portage Park", "ward": 38, "phone": "(312) 744-6222", "source": "CDPH ArcGIS Harm_Reduction_Boxes (live)", "in_chicago": true}}, {"type": "Feature", "geometry": {"type": "Point", "coordinates": [-87.6735792651208, 41.83017037333637]}, "properties": {"name": "McKinley Park Branch", "address": "1915 W 35th St, Chicago, IL 60609", "city": "Chicago", "zip": "60609", "type": "chicago_public_library", "operator": "Chicago Public Library", "community_area": "McKinley Park", "ward": 12, "phone": "(312) 747-6082", "source": "CDPH ArcGIS Harm_Reduction_Boxes (live)", "in_chicago": true}}, {"type": "Feature", "geometry": {"type": "Point", "coordinates": [-87.64646963707793, 41.83257606740559]}, "properties": {"name": "Daley, R J.-Bridgeport Branch", "address": "3400 S Halsted St, Chicago, IL 60608", "city": "Chicago", "zip": "60608", "type": "chicago_public_library", "operator": "Chicago Public Library", "community_area": "Bridgeport", "ward": 11, "phone": "(312) 747-8990", "source": "CDPH ArcGIS Harm_Reduction_Boxes (live)", "in_chicago": true}}, {"type": "Feature", "geometry": {"type": "Point", "coordinates": [-87.72528857507317, 41.879327527738475]}, "properties": {"name": "Legler Regional Branch", "address": "115 S Pulaski Rd, Chicago, IL 60624", "city": "Chicago", "zip": "60624", "type": "chicago_public_library", "operator": "Chicago Public Library", "community_area": "West Garfield Park", "ward": 28, "phone": "(312) 746-7730", "source": "CDPH ArcGIS Harm_Reduction_Boxes (live)", "in_chicago": true}}, {"type": "Feature", "geometry": {"type": "Point", "coordinates": [-87.76582017713109, 41.88903427267342]}, "properties": {"name": "Austin Branch", "address": "5615 W Race Ave, Chicago, IL 60644", "city": "Chicago", "zip": "60644", "type": "chicago_public_library", "operator": "Chicago Public Library", "community_area": "Austin", "ward": 29, "phone": "(312) 746-5038", "source": "CDPH ArcGIS Harm_Reduction_Boxes (live)", "in_chicago": true}}, {"type": "Feature", "geometry": {"type": "Point", "coordinates": [-87.60167394040734, 41.653962231623254]}, "properties": {"name": "Altgeld Branch", "address": "13281 S Corliss Ave, Chicago, IL 60827", "city": "Chicago", "zip": "60827", "type": "chicago_public_library", "operator": "Chicago Public Library", "community_area": "Riverdale", "ward": 9, "phone": "(312) 747-3270", "source": "CDPH ArcGIS Harm_Reduction_Boxes (live)", "in_chicago": true}}, {"type": "Feature", "geometry": {"type": "Point", "coordinates": [-87.71013724688349, 41.86434843442893]}, "properties": {"name": "Douglass Branch", "address": "3353 W 13th St, Chicago, IL 60623", "city": "Chicago", "zip": "60623", "type": "chicago_public_library", "operator": "Chicago Public Library", "community_area": "North Lawndale", "ward": 24, "phone": "(312) 747-3725", "source": "CDPH ArcGIS Harm_Reduction_Boxes (live)", "in_chicago": true}}, {"type": "Feature", "geometry": {"type": "Point", "coordinates": [-87.70119946083531, 41.693113105745645]}, "properties": {"name": "Mount Greenwood Branch", "address": "11010 S Kedzie Ave, Chicago, IL 60655", "city": "Chicago", "zip": "60655", "type": "chicago_public_library", "operator": "Chicago Public Library", "community_area": "Mount Greenwood", "ward": 19, "phone": "(312) 747-2805", "source": "CDPH ArcGIS Harm_Reduction_Boxes (live)", "in_chicago": true}}, {"type": "Feature", "geometry": {"type": "Point", "coordinates": [-87.74800148259514, 41.89532187481301]}, "properties": {"name": "West Chicago Avenue Branch", "address": "4856 W Chicago Ave, Chicago, IL 60651", "city": "Chicago", "zip": "60651", "type": "chicago_public_library", "operator": "Chicago Public Library", "community_area": "Austin", "ward": 37, "phone": "(312) 743-0260", "source": "CDPH ArcGIS Harm_Reduction_Boxes (live)", "in_chicago": true}}, {"type": "Feature", "geometry": {"type": "Point", "coordinates": [-87.61794732352578, 41.69437683283758]}, "properties": {"name": "Pullman Branch", "address": "11001 S Indiana Ave, Chicago, IL 60628", "city": "Chicago", "zip": "60628", "type": "chicago_public_library", "operator": "Chicago Public Library", "community_area": "Roseland", "ward": 9, "phone": "(312) 747-2033", "source": "CDPH ArcGIS Harm_Reduction_Boxes (live)", "in_chicago": true}}, {"type": "Feature", "geometry": {"type": "Point", "coordinates": [-87.64279661913626, 41.720926777238496]}, "properties": {"name": "Woodson Regional Branch", "address": "9525 S Halsted St, Chicago, IL 60628", "city": "Chicago", "zip": "60628", "type": "chicago_public_library", "operator": "Chicago Public Library", "community_area": "Washington Heights", "ward": 21, "phone": "(312) 747-6900", "source": "CDPH ArcGIS Harm_Reduction_Boxes (live)", "in_chicago": true}}, {"type": "Feature", "geometry": {"type": "Point", "coordinates": [-87.72663642749892, 41.800884890719566]}, "properties": {"name": "Archer Heights Branch", "address": "5055 S Archer Ave, Chicago, IL 60632", "city": "Chicago", "zip": "60632", "type": "chicago_public_library", "operator": "Chicago Public Library", "community_area": "Archer Heights", "ward": 14, "phone": "(312) 747-9241", "source": "CDPH ArcGIS Harm_Reduction_Boxes (live)", "in_chicago": true}}, {"type": "Feature", "geometry": {"type": "Point", "coordinates": [-87.67766798056456, 41.807727161462374]}, "properties": {"name": "Back of the Yards Branch", "address": "2111 W 47th St, Chicago, IL 60609", "city": "Chicago", "zip": "60609", "type": "chicago_public_library", "operator": "Chicago Public Library", "community_area": "New City", "ward": 15, "phone": "(312) 747-9595", "source": "CDPH ArcGIS Harm_Reduction_Boxes (live)", "in_chicago": true}}, {"type": "Feature", "geometry": {"type": "Point", "coordinates": [-87.7032023788603, 41.815064292699375]}, "properties": {"name": "Brighton Park Branch", "address": "4314 S Archer Ave, Chicago, IL 60632", "city": "Chicago", "zip": "60632", "type": "chicago_public_library", "operator": "Chicago Public Library", "community_area": "Brighton Park", "ward": 15, "phone": "(312) 747-0666", "source": "CDPH ArcGIS Harm_Reduction_Boxes (live)", "in_chicago": true}}, {"type": "Feature", "geometry": {"type": "Point", "coordinates": [-87.65773756784878, 41.73252280810533]}, "properties": {"name": "Brainerd Branch", "address": "1350 W 89th St, Chicago, IL 60620", "city": "Chicago", "zip": "60620", "type": "chicago_public_library", "operator": "Chicago Public Library", "community_area": "Auburn Gresham", "ward": 21, "phone": "(312) 747-6291", "source": "CDPH ArcGIS Harm_Reduction_Boxes (live)", "in_chicago": true}}, {"type": "Feature", "geometry": {"type": "Point", "coordinates": [-87.59033561222333, 41.80583994114569]}, "properties": {"name": "Blackstone Branch", "address": "4904 S Lake Park Ave, Chicago, IL 60615", "city": "Chicago", "zip": "60615", "type": "chicago_public_library", "operator": "Chicago Public Library", "community_area": "Kenwood", "ward": 4, "phone": "(312) 747-0511", "source": "CDPH ArcGIS Harm_Reduction_Boxes (live)", "in_chicago": true}}, {"type": "Feature", "geometry": {"type": "Point", "coordinates": [-87.7025003843197, 41.73766566951483]}, "properties": {"name": "Wrightwood-Ashburn Branch", "address": "8530 S Kedzie Ave, Chicago, IL 60652", "city": "Chicago", "zip": "60652", "type": "chicago_public_library", "operator": "Chicago Public Library", "community_area": "Ashburn", "ward": 18, "phone": "(312) 747-2696", "source": "CDPH ArcGIS Harm_Reduction_Boxes (live)", "in_chicago": true}}, {"type": "Feature", "geometry": {"type": "Point", "coordinates": [-87.72455847926913, 41.749161569236605]}, "properties": {"name": "Scottsdale Branch", "address": "4101 W 79th St, Chicago, IL 60652", "city": "Chicago", "zip": "60652", "type": "chicago_public_library", "operator": "Chicago Public Library", "community_area": "Ashburn", "ward": 18, "phone": "(312) 747-0193", "source": "CDPH ArcGIS Harm_Reduction_Boxes (live)", "in_chicago": true}}, {"type": "Feature", "geometry": {"type": "Point", "coordinates": [-87.6543790849167, 41.757373330172875]}, "properties": {"name": "Thurgood Marshall Branch", "address": "7506 S Racine Ave, Chicago, IL 60620", "city": "Chicago", "zip": "60620", "type": "chicago_public_library", "operator": "Chicago Public Library", "community_area": "Auburn Gresham", "ward": 17, "phone": "(312) 747-5927", "source": "CDPH ArcGIS Harm_Reduction_Boxes (live)", "in_chicago": true}}, {"type": "Feature", "geometry": {"type": "Point", "coordinates": [-87.63723974001023, 41.78200247666666]}, "properties": {"name": "Kelly Branch", "address": "6151 S Normal Blvd, Chicago, IL 60621", "city": "Chicago", "zip": "60621", "type": "chicago_public_library", "operator": "Chicago Public Library", "community_area": "Englewood", "ward": 20, "phone": "(312) 747-8418", "source": "CDPH ArcGIS Harm_Reduction_Boxes (live)", "in_chicago": true}}, {"type": "Feature", "geometry": {"type": "Point", "coordinates": [-87.56371022904041, 41.76245637393904]}, "properties": {"name": "South Shore Branch", "address": "2505 E 73rd St, Chicago, IL 60649", "city": "Chicago", "zip": "60649", "type": "chicago_public_library", "operator": "Chicago Public Library", "community_area": "South Shore", "ward": 7, "phone": "(312) 747-5281", "source": "CDPH ArcGIS Harm_Reduction_Boxes (live)", "in_chicago": true}}, {"type": "Feature", "geometry": {"type": "Point", "coordinates": [-87.70622927043466, 41.89440623848712]}, "properties": {"name": "Daley, R.M.-W Humboldt Branch", "address": "733 N Kedzie Ave, Chicago, IL 60612", "city": "Chicago", "zip": "60612", "type": "chicago_public_library", "operator": "Chicago Public Library", "community_area": "Humboldt Park", "ward": 27, "phone": "(312) 743-0555", "source": "CDPH ArcGIS Harm_Reduction_Boxes (live)", "in_chicago": true}}, {"type": "Feature", "geometry": {"type": "Point", "coordinates": [-87.66094943565706, 41.85754178667327]}, "properties": {"name": "Lozano Branch", "address": "1805 S Loomis St, Chicago, IL 60608", "city": "Chicago", "zip": "60608", "type": "chicago_public_library", "operator": "Chicago Public Library", "community_area": "Lower West Side", "ward": 25, "phone": "(312) 746-4329", "source": "CDPH ArcGIS Harm_Reduction_Boxes (live)", "in_chicago": true}}, {"type": "Feature", "geometry": {"type": "Point", "coordinates": [-87.6551565384325, 41.79482644043114]}, "properties": {"name": "Sherman Park Branch", "address": "5440 S Racine Ave, Chicago, IL 60609", "city": "Chicago", "zip": "60609", "type": "chicago_public_library", "operator": "Chicago Public Library", "community_area": "New City", "ward": 20, "phone": "(312) 747-0477", "source": "CDPH ArcGIS Harm_Reduction_Boxes (live)", "in_chicago": true}}, {"type": "Feature", "geometry": {"type": "Point", "coordinates": [-87.65420476740421, 41.958191009256666]}, "properties": {"name": "Uptown Branch", "address": "929 W Buena Ave, Chicago, IL 60613", "city": "Chicago", "zip": "60613", "type": "chicago_public_library", "operator": "Chicago Public Library", "community_area": "Uptown", "ward": 46, "phone": "(312) 744-8400", "source": "CDPH ArcGIS Harm_Reduction_Boxes (live)", "in_chicago": true}}, {"type": "Feature", "geometry": {"type": "Point", "coordinates": [-87.64621910868486, 41.94031958809739]}, "properties": {"name": "Merlo Branch", "address": "644 W Belmont Ave, Chicago, IL 60657", "city": "Chicago", "zip": "60657", "type": "chicago_public_library", "operator": "Chicago Public Library", "community_area": "Lake View", "ward": 44, "phone": "(312) 744-1139", "source": "CDPH ArcGIS Harm_Reduction_Boxes (live)", "in_chicago": true}}, {"type": "Feature", "geometry": {"type": "Point", "coordinates": [-87.72484453395191, 41.84210598693898]}, "properties": {"name": "Toman Branch", "address": "2708 S Pulaski Rd, Chicago, IL 60623", "city": "Chicago", "zip": "60623", "type": "chicago_public_library", "operator": "Chicago Public Library", "community_area": "South Lawndale", "ward": 22, "phone": "(312) 745-1660", "source": "CDPH ArcGIS Harm_Reduction_Boxes (live)", "in_chicago": true}}, {"type": "Feature", "geometry": {"type": "Point", "coordinates": [-87.7382003563167, 41.96840062612053]}, "properties": {"name": "Mayfair Branch", "address": "4400 W Lawrence Ave, Chicago, IL 60630", "city": "Chicago", "zip": "60630", "type": "chicago_public_library", "operator": "Chicago Public Library", "community_area": "Albany Park", "ward": 39, "phone": "(312) 744-1254", "source": "CDPH ArcGIS Harm_Reduction_Boxes (live)", "in_chicago": true}}, {"type": "Feature", "geometry": {"type": "Point", "coordinates": [-87.7236166765228, 41.77891125871141]}, "properties": {"name": "West Lawn Branch", "address": "4020 W 63rd St, Chicago, IL 60629", "city": "Chicago", "zip": "60629", "type": "chicago_public_library", "operator": "Chicago Public Library", "community_area": "West Lawn", "ward": 23, "phone": "(312) 747-7381", "source": "CDPH ArcGIS Harm_Reduction_Boxes (live)", "in_chicago": true}}, {"type": "Feature", "geometry": {"type": "Point", "coordinates": [-87.66067563565522, 41.99120731269658]}, "properties": {"name": "Edgewater Branch", "address": "6000 N Broadway St, Chicago, IL 60660", "city": "Chicago", "zip": "60660", "type": "chicago_public_library", "operator": "Chicago Public Library", "community_area": "Edgewater", "ward": 48, "phone": "(312) 742-1945", "source": "CDPH ArcGIS Harm_Reduction_Boxes (live)", "in_chicago": true}}, {"type": "Feature", "geometry": {"type": "Point", "coordinates": [-87.6607527517225, 41.9716491045231]}, "properties": {"name": "Bezazian Branch", "address": "1226 W. Ainslie St, Chicago, IL 60640", "city": "Chicago", "zip": "60640", "type": "chicago_public_library", "operator": "Chicago Public Library", "community_area": "Uptown", "ward": 46, "phone": "(312) 744-0019", "source": "CDPH ArcGIS Harm_Reduction_Boxes (live)", "in_chicago": true}}, {"type": "Feature", "geometry": {"type": "Point", "coordinates": [-87.7822481793458, 41.776480175110905]}, "properties": {"name": "Clearing Branch", "address": "6423 W 63rd Pl, Chicago, IL 60638", "city": "Chicago", "zip": "60638", "type": "chicago_public_library", "operator": "Chicago Public Library", "community_area": "Clearing", "ward": 23, "phone": "(312) 747-5657", "source": "CDPH ArcGIS Harm_Reduction_Boxes (live)", "in_chicago": true}}, {"type": "Feature", "geometry": {"type": "Point", "coordinates": [-87.62609007849474, 41.82801465465805]}, "properties": {"name": "Chicago Bee Branch", "address": "3647 S State St, Chicago, IL 60609", "city": "Chicago", "zip": "60609", "type": "chicago_public_library", "operator": "Chicago Public Library", "community_area": "Douglas", "ward": 3, "phone": "(312) 747-6872", "source": "CDPH ArcGIS Harm_Reduction_Boxes (live)", "in_chicago": true}}, {"type": "Feature", "geometry": {"type": "Point", "coordinates": [-87.68033339586702, 41.91254599942761]}, "properties": {"name": "Bucktown-Wicker Park Branch", "address": "1701 N Milwaukee Ave, Chicago, IL 60647", "city": "Chicago", "zip": "60647", "type": "chicago_public_library", "operator": "Chicago Public Library", "community_area": "West Town", "ward": 32, "phone": "(312) 744-6022", "source": "CDPH ArcGIS Harm_Reduction_Boxes (live)", "in_chicago": true}}, {"type": "Feature", "geometry": {"type": "Point", "coordinates": [-87.70360838698925, 41.925089420496946]}, "properties": {"name": "Logan Square Branch", "address": "3030 W Fullerton Ave, Chicago, IL 60647", "city": "Chicago", "zip": "60647", "type": "chicago_public_library", "operator": "Chicago Public Library", "community_area": "Logan Square", "ward": 32, "phone": "(312) 744-5295", "source": "CDPH ArcGIS Harm_Reduction_Boxes (live)", "in_chicago": true}}, {"type": "Feature", "geometry": {"type": "Point", "coordinates": [-87.58630810479417, 41.74633985349518]}, "properties": {"name": "Avalon Branch", "address": "8148 S Stony Island Ave, Chicago, IL 60617", "city": "Chicago", "zip": "60617", "type": "chicago_public_library", "operator": "Chicago Public Library", "community_area": "Avalon Park", "ward": 8, "phone": "(312) 747-5234", "source": "CDPH ArcGIS Harm_Reduction_Boxes (live)", "in_chicago": true}}, {"type": "Feature", "geometry": {"type": "Point", "coordinates": [-87.54875522053023, 41.65940316947023]}, "properties": {"name": "Hegewisch Branch", "address": "3048 E 130th St, Chicago, IL 60633", "city": "Chicago", "zip": "60633", "type": "chicago_public_library", "operator": "Chicago Public Library", "community_area": "Hegewisch", "ward": 10, "phone": "(312) 747-0046", "source": "CDPH ArcGIS Harm_Reduction_Boxes (live)", "in_chicago": true}}, {"type": "Feature", "geometry": {"type": "Point", "coordinates": [-87.6604996476918, 41.86965060783009]}, "properties": {"name": "Little Italy Branch", "address": "1336 W Taylor St, Chicago, IL 60607", "city": "Chicago", "zip": "60607", "type": "chicago_public_library", "operator": "Chicago Public Library", "community_area": "Near West Side", "ward": 28, "phone": "(312) 746-5656", "source": "CDPH ArcGIS Harm_Reduction_Boxes (live)", "in_chicago": true}}, {"type": "Feature", "geometry": {"type": "Point", "coordinates": [-87.66837247164072, 41.89578837050186]}, "properties": {"name": "West Town Branch", "address": "1625 W Chicago Ave, Chicago, IL 60622", "city": "Chicago", "zip": "60622", "type": "chicago_public_library", "operator": "Chicago Public Library", "community_area": "West Town", "ward": 1, "phone": "(312) 743-0450", "source": "CDPH ArcGIS Harm_Reduction_Boxes (live)", "in_chicago": true}}, {"type": "Feature", "geometry": {"type": "Point", "coordinates": [-87.81387535603406, 41.97837804549593]}, "properties": {"name": "Oriole Park Branch", "address": "7454 W Balmoral Ave, Chicago, IL 60656", "city": "Chicago", "zip": "60656", "type": "chicago_public_library", "operator": "Chicago Public Library", "community_area": "Norwood Park", "ward": 41, "phone": "(312) 744-1965", "source": "CDPH ArcGIS Harm_Reduction_Boxes (live)", "in_chicago": true}}, {"type": "Feature", "geometry": {"type": "Point", "coordinates": [-87.69938453088876, 41.99877268064406]}, "properties": {"name": "Northtown Branch", "address": "6435 N California Ave, Chicago, IL 60645", "city": "Chicago", "zip": "60645", "type": "chicago_public_library", "operator": "Chicago Public Library", "community_area": "West Ridge", "ward": 50, "phone": "(312) 744-2292", "source": "CDPH ArcGIS Harm_Reduction_Boxes (live)", "in_chicago": true}}, {"type": "Feature", "geometry": {"type": "Point", "coordinates": [-87.56554302753558, 41.713229898222835]}, "properties": {"name": "Jeffery Manor Branch", "address": "2401 E 100th St, Chicago, IL 60617", "city": "Chicago", "zip": "60617", "type": "chicago_public_library", "operator": "Chicago Public Library", "community_area": "South Deering", "ward": 7, "phone": "(312) 747-6479", "source": "CDPH ArcGIS Harm_Reduction_Boxes (live)", "in_chicago": true}}, {"type": "Feature", "geometry": {"type": "Point", "coordinates": [-87.76199074050126, 41.967366601773456]}, "properties": {"name": "Jefferson Park Branch", "address": "5363 W Lawrence Ave, Chicago, IL 60630", "city": "Chicago", "zip": "60630", "type": "chicago_public_library", "operator": "Chicago Public Library", "community_area": "Portage Park", "ward": 45, "phone": "(312) 744-1998", "source": "CDPH ArcGIS Harm_Reduction_Boxes (live)", "in_chicago": true}}, {"type": "Feature", "geometry": {"type": "Point", "coordinates": [-87.78619893823186, 41.93674327446964]}, "properties": {"name": "West Belmont Branch", "address": "3104 N Narragansett Ave, Chicago, IL 60634", "city": "Chicago", "zip": "60634", "type": "chicago_public_library", "operator": "Chicago Public Library", "community_area": "Belmont Cragin", "ward": 36, "phone": "(312) 746-5142", "source": "CDPH ArcGIS Harm_Reduction_Boxes (live)", "in_chicago": true}}, {"type": "Feature", "geometry": {"type": "Point", "coordinates": [-87.61777936135813, 41.8318201533988]}, "properties": {"name": "King Branch", "address": "3436 S King Dr, Chicago, IL 60616", "city": "Chicago", "zip": "60616", "type": "chicago_public_library", "operator": "Chicago Public Library", "community_area": "Douglas", "ward": 4, "phone": "(312) 747-7543", "source": "CDPH ArcGIS Harm_Reduction_Boxes (live)", "in_chicago": true}}, {"type": "Feature", "geometry": {"type": "Point", "coordinates": [-87.6426035163376, 41.81648831398354]}, "properties": {"name": "Canaryville Branch", "address": "642 W 43rd St, Chicago, IL 60609", "city": "Chicago", "zip": "60609", "type": "chicago_public_library", "operator": "Chicago Public Library", "community_area": "New City", "ward": 11, "phone": "(312) 747-0644", "source": "CDPH ArcGIS Harm_Reduction_Boxes (live)", "in_chicago": true}}, {"type": "Feature", "geometry": {"type": "Point", "coordinates": [-87.69634386600889, 41.98337413746362]}, "properties": {"name": "Budlong Woods Branch", "address": "5630 N Lincoln Ave, Chicago, IL 60659", "city": "Chicago", "zip": "60659", "type": "chicago_public_library", "operator": "Chicago Public Library", "community_area": "West Ridge", "ward": 40, "phone": "(312) 742-9590", "source": "CDPH ArcGIS Harm_Reduction_Boxes (live)", "in_chicago": true}}, {"type": "Feature", "geometry": {"type": "Point", "coordinates": [-87.67225162273682, 41.721381284013596]}, "properties": {"name": "Beverly Branch", "address": "1962 W 95th St, Chicago, IL 60643", "city": "Chicago", "zip": "60643", "type": "chicago_public_library", "operator": "Chicago Public Library", "community_area": "Beverly", "ward": 19, "phone": "(312) 747-9673", "source": "CDPH ArcGIS Harm_Reduction_Boxes (live)", "in_chicago": true}}, {"type": "Feature", "geometry": {"type": "Point", "coordinates": [-87.60684086305386, 41.78013978352704]}, "properties": {"name": "Coleman Branch", "address": "731 E 63rd St, Chicago, IL 60637", "city": "Chicago", "zip": "60637", "type": "chicago_public_library", "operator": "Chicago Public Library", "community_area": "Woodlawn", "ward": 20, "phone": "(312) 747-7760", "source": "CDPH ArcGIS Harm_Reduction_Boxes (live)", "in_chicago": true}}, {"type": "Feature", "geometry": {"type": "Point", "coordinates": [-87.6731823344546, 42.00697943040146]}, "properties": {"name": "Rogers Park Branch", "address": "6907 N Clark St, Chicago, IL 60626", "city": "Chicago", "zip": "60626", "type": "chicago_public_library", "operator": "Chicago Public Library", "community_area": "Rogers Park", "ward": 49, "phone": "(312) 744-0156", "source": "CDPH ArcGIS Harm_Reduction_Boxes (live)", "in_chicago": true}}, {"type": "Feature", "geometry": {"type": "Point", "coordinates": [-87.5495498838059, 41.73038072767694]}, "properties": {"name": "South Chicago Branch", "address": "9055 S Houston Ave, Chicago, IL 60617", "city": "Chicago", "zip": "60617", "type": "chicago_public_library", "operator": "Chicago Public Library", "community_area": "South Chicago", "ward": 10, "phone": "(312) 747-8065", "source": "CDPH ArcGIS Harm_Reduction_Boxes (live)", "in_chicago": true}}, {"type": "Feature", "geometry": {"type": "Point", "coordinates": [-87.67381815646263, 41.692233085483224]}, "properties": {"name": "Walker Branch", "address": "11071 S Hoyne Ave, Chicago, IL 60643", "city": "Chicago", "zip": "60643", "type": "chicago_public_library", "operator": "Chicago Public Library", "community_area": "Morgan Park", "ward": 19, "phone": "(312) 747-1920", "source": "CDPH ArcGIS Harm_Reduction_Boxes (live)", "in_chicago": true}}, {"type": "Feature", "geometry": {"type": "Point", "coordinates": [-87.7052904338574, 41.91041495649612]}, "properties": {"name": "Humboldt Park Branch", "address": "1605 N Troy St, Chicago, IL 60647", "city": "Chicago", "zip": "60647", "type": "chicago_public_library", "operator": "Chicago Public Library", "community_area": "Humboldt Park", "ward": 26, "phone": "(312) 744-2244", "source": "CDPH ArcGIS Harm_Reduction_Boxes (live)", "in_chicago": true}}, {"type": "Feature", "geometry": {"type": "Point", "coordinates": [-87.78025508994932, 41.79298755979358]}, "properties": {"name": "Garfield Ridge Branch", "address": "6348 S Archer Ave, Chicago, IL 60638", "city": "Chicago", "zip": "60638", "type": "chicago_public_library", "operator": "Chicago Public Library", "community_area": "Garfield Ridge", "ward": 23, "phone": "(312) 747-6094", "source": "CDPH ArcGIS Harm_Reduction_Boxes (live)", "in_chicago": true}}, {"type": "Feature", "geometry": {"type": "Point", "coordinates": [-87.7035441729968, 41.78194377183381]}, "properties": {"name": "Chicago Lawn Branch", "address": "6120 S Kedzie Ave, Chicago, IL 60629", "city": "Chicago", "zip": "60629", "type": "chicago_public_library", "operator": "Chicago Public Library", "community_area": "Chicago Lawn", "ward": 23, "phone": "(312) 747-0639", "source": "CDPH ArcGIS Harm_Reduction_Boxes (live)", "in_chicago": true}}, {"type": "Feature", "geometry": {"type": "Point", "coordinates": [-87.66844239566753, 41.779080647843934]}, "properties": {"name": "West Englewood Branch", "address": "1745 W 63rd St, Chicago, IL 60636", "city": "Chicago", "zip": "60636", "type": "chicago_public_library", "operator": "Chicago Public Library", "community_area": "West Englewood", "ward": 15, "phone": "(312) 747-3481", "source": "CDPH ArcGIS Harm_Reduction_Boxes (live)", "in_chicago": true}}, {"type": "Feature", "geometry": {"type": "Point", "coordinates": [-87.6145174636847, 41.75090231170453]}, "properties": {"name": "Whitney M. Young, Jr. Branch", "address": "7901 S King Dr, Chicago, IL 60619", "city": "Chicago", "zip": "60619", "type": "chicago_public_library", "operator": "Chicago Public Library", "community_area": "Chatham", "ward": 6, "phone": "(312) 747-0039", "source": "CDPH ArcGIS Harm_Reduction_Boxes (live)", "in_chicago": true}}, {"type": "Feature", "geometry": {"type": "Point", "coordinates": [-87.67077715008924, 41.9403297358514]}, "properties": {"name": "Lincoln Belmont Branch", "address": "1659 W Melrose St, Chicago, IL 60657", "city": "Chicago", "zip": "60657", "type": "chicago_public_library", "operator": "Chicago Public Library", "community_area": "Lake View", "ward": 47, "phone": "(312) 744-0166", "source": "CDPH ArcGIS Harm_Reduction_Boxes (live)", "in_chicago": true}}, {"type": "Feature", "geometry": {"type": "Point", "coordinates": [-87.71385046629564, 41.9754451668929]}, "properties": {"name": "Albany Park Branch", "address": "3401 W Foster Ave, Chicago, IL 60625", "city": "Chicago", "zip": "60625", "type": "chicago_public_library", "operator": "Chicago Public Library", "community_area": "North Park", "ward": 39, "phone": "(773) 539-5450", "source": "CDPH ArcGIS Harm_Reduction_Boxes (live)", "in_chicago": true}}, {"type": "Feature", "geometry": {"type": "Point", "coordinates": [-87.60033935510805, 41.762549607523525]}, "properties": {"name": "Greater Grand Crossing Branch", "address": "1000 E 73rd St, Chicago, IL 60619", "city": "Chicago", "zip": "60619", "type": "chicago_public_library", "operator": "Chicago Public Library", "community_area": "Greater Grand Crossing", "ward": 5, "phone": "(312) 745-1608", "source": "CDPH ArcGIS Harm_Reduction_Boxes (live)", "in_chicago": true}}, {"type": "Feature", "geometry": {"type": "Point", "coordinates": [-87.76190832024488, 41.99705456915445]}, "properties": {"name": "Edgebrook Branch", "address": "5331 W Devon Ave, Chicago, IL 60646", "city": "Chicago", "zip": "60646", "type": "chicago_public_library", "operator": "Chicago Public Library", "community_area": "Forest Glen", "ward": 39, "phone": "(312) 744-8313", "source": "CDPH ArcGIS Harm_Reduction_Boxes (live)", "in_chicago": true}}, {"type": "Feature", "geometry": {"type": "Point", "coordinates": [-87.75498480754436, 41.93894329749053]}, "properties": {"name": "Portage-Cragin Branch", "address": "5108 W Belmont Ave, Chicago, IL 60641", "city": "Chicago", "zip": "60641", "type": "chicago_public_library", "operator": "Chicago Public Library", "community_area": "Portage Park", "ward": 31, "phone": "(312) 744-0152", "source": "CDPH ArcGIS Harm_Reduction_Boxes (live)", "in_chicago": true}}, {"type": "Feature", "geometry": {"type": "Point", "coordinates": [-87.6223144512894, 41.807214074017814]}, "properties": {"name": "Hall Branch", "address": "4801 S Michigan Ave, Chicago, IL 60615", "city": "Chicago", "zip": "60615", "type": "chicago_public_library", "operator": "Chicago Public Library", "community_area": "Grand Boulevard", "ward": 3, "phone": "(312) 747-2541", "source": "CDPH ArcGIS Harm_Reduction_Boxes (live)", "in_chicago": true}}, {"type": "Feature", "geometry": {"type": "Point", "coordinates": [-87.63218479797537, 41.85380565890403]}, "properties": {"name": "Chinatown Branch", "address": "2100 S Wentworth Ave, Chicago, IL 60616", "city": "Chicago", "zip": "60616", "type": "chicago_public_library", "operator": "Chicago Public Library", "community_area": "Armour Square", "ward": 25, "phone": "(312) 747-8013", "source": "CDPH ArcGIS Harm_Reduction_Boxes (live)", "in_chicago": true}}, {"type": "Feature", "geometry": {"type": "Point", "coordinates": [-87.69417409974166, 41.79344494623967]}, "properties": {"name": "Gage Park Branch", "address": "2807 W 55th St, Chicago, IL 60632", "city": "Chicago", "zip": "60632", "type": "chicago_public_library", "operator": "Chicago Public Library", "community_area": "Gage Park", "ward": 16, "phone": "(312) 747-0032", "source": "CDPH ArcGIS Harm_Reduction_Boxes (live)", "in_chicago": true}}, {"type": "Feature", "geometry": {"type": "Point", "coordinates": [-87.798014075305, 41.99211034482502]}, "properties": {"name": "Roden Branch", "address": "6083 N NW Hwy, Chicago, IL 60631", "city": "Chicago", "zip": "60631", "type": "chicago_public_library", "operator": "Chicago Public Library", "community_area": "Norwood Park", "ward": 41, "phone": "(312) 744-1478", "source": "CDPH ArcGIS Harm_Reduction_Boxes (live)", "in_chicago": true}}, {"type": "Feature", "geometry": {"type": "Point", "coordinates": [-87.62323635588595, 41.897388098770875]}, "properties": {"name": "Water Works Branch", "address": "163 E Pearson St, Chicago, IL 60611", "city": "Chicago", "zip": "60611", "type": "chicago_public_library", "operator": "Chicago Public Library", "community_area": "Near North Side", "ward": 2, "phone": "(312) 742-8811", "source": "CDPH ArcGIS Harm_Reduction_Boxes (live)", "in_chicago": true}}, {"type": "Feature", "geometry": {"type": "Point", "coordinates": [-87.76890153675585, 41.909614497805634]}, "properties": {"name": "North Austin Branch", "address": "5724 W North Ave, Chicago, IL 60639", "city": "Chicago", "zip": "60639", "type": "chicago_public_library", "operator": "Chicago Public Library", "community_area": "Austin", "ward": 29, "phone": "(312) 746-4233", "source": "CDPH ArcGIS Harm_Reduction_Boxes (live)", "in_chicago": true}}, {"type": "Feature", "geometry": {"type": "Point", "coordinates": [-87.63657954229797, 41.90413865138815]}, "properties": {"name": "Near North Branch", "address": "310 W Division St, Chicago, IL 60610", "city": "Chicago", "zip": "60610", "type": "chicago_public_library", "operator": "Chicago Public Library", "community_area": "Near North Side", "ward": 2, "phone": "(312) 744-0991", "source": "CDPH ArcGIS Harm_Reduction_Boxes (live)", "in_chicago": true}}, {"type": "Feature", "geometry": {"type": "Point", "coordinates": [-87.72015787320503, 41.95404718519865]}, "properties": {"name": "Independence Branch", "address": "4022 N. Elston Ave, Chicago, IL 60618", "city": "Chicago", "zip": "60618", "type": "chicago_public_library", "operator": "Chicago Public Library", "community_area": "Irving Park", "ward": 45, "phone": null, "source": "CDPH ArcGIS Harm_Reduction_Boxes (live)", "in_chicago": true}}, {"type": "Feature", "geometry": {"type": "Point", "coordinates": [-87.73407926480944, 41.91019276773307]}, "properties": {"name": "North Pulaski Branch", "address": "4300 W North Ave, Chicago, IL 60639", "city": "Chicago", "zip": "60639", "type": "chicago_public_library", "operator": "Chicago Public Library", "community_area": "Humboldt Park", "ward": 26, "phone": "(312) 744-9573", "source": "CDPH ArcGIS Harm_Reduction_Boxes (live)", "in_chicago": true}}, {"type": "Feature", "geometry": {"type": "Point", "coordinates": [-87.53362290358638, 41.70297201628167]}, "properties": {"name": "Vodak-East Side Branch", "address": "3710 E 106th St, Chicago, IL 60617", "city": "Chicago", "zip": "60617", "type": "chicago_public_library", "operator": "Chicago Public Library", "community_area": "East Side", "ward": 10, "phone": "(312) 747-5500", "source": "CDPH ArcGIS Harm_Reduction_Boxes (live)", "in_chicago": true}}, {"type": "Feature", "geometry": {"type": "Point", "coordinates": [-87.65461216599276, 41.883784921375]}, "properties": {"name": "West Loop Branch", "address": "122 N Aberdeen St, Chicago, IL 60607", "city": "Chicago", "zip": "60607", "type": "chicago_public_library", "operator": "Chicago Public Library", "community_area": "Near West Side", "ward": 27, "phone": "(312) 744-2995", "source": "CDPH ArcGIS Harm_Reduction_Boxes (live)", "in_chicago": true}}, {"type": "Feature", "geometry": {"type": "Point", "coordinates": [-87.74925943172346, 41.902014766280125]}, "properties": {"name": "Austin STI Clinic", "address": "4909 W Division St, Chicago, IL 60651", "city": "Chicago", "zip": "60651", "type": "cdph", "operator": "CDPH", "community_area": "Austin", "ward": 37, "phone": null, "source": "CDPH ArcGIS Harm_Reduction_Boxes (live)", "in_chicago": true}}, {"type": "Feature", "geometry": {"type": "Point", "coordinates": [-87.64141459139705, 41.77952960393203]}, "properties": {"name": "Englewood Clinic", "address": "641 W 63rd St, Chicago, IL 60621", "city": "Chicago", "zip": "60621", "type": "cdph", "operator": "CDPH", "community_area": "Englewood", "ward": 20, "phone": null, "source": "CDPH ArcGIS Harm_Reduction_Boxes (live)", "in_chicago": true}}, {"type": "Feature", "geometry": {"type": "Point", "coordinates": [-87.72771969315, 41.79340130577002]}, "properties": {"name": "Greater Lawn Mental Health Clinic", "address": "4150 W 55th St, Chicago, IL 60632", "city": "Chicago", "zip": "60632", "type": "cdph", "operator": "CDPH", "community_area": "West Elsdon", "ward": 23, "phone": null, "source": "CDPH ArcGIS Harm_Reduction_Boxes (live)", "in_chicago": true}}, {"type": "Feature", "geometry": {"type": "Point", "coordinates": [-87.60730226068509, 41.816494226997506]}, "properties": {"name": "Greater Grand Mental Health Clinic (King Center)", "address": "4314 S Cottage Grove Ave, Chicago, IL 60653", "city": "Chicago", "zip": "60653", "type": "cdph", "operator": "CDPH", "community_area": "Grand Boulevard", "ward": 4, "phone": null, "source": "CDPH ArcGIS Harm_Reduction_Boxes (live)", "in_chicago": true}}, {"type": "Feature", "geometry": {"type": "Point", "coordinates": [-87.64584120019977, 41.93425477743117]}, "properties": {"name": "Lakeview Specialty Clinic", "address": "2849 N Clark St, Chicago, IL 60657", "city": "Chicago", "zip": "60657", "type": "cdph", "operator": "CDPH", "community_area": "Lakeview", "ward": 44, "phone": null, "source": "CDPH ArcGIS Harm_Reduction_Boxes (live)", "in_chicago": true}}, {"type": "Feature", "geometry": {"type": "Point", "coordinates": [-87.6858132661846, 41.868140738165685]}, "properties": {"name": "Lawndale Mental Health Clinic", "address": "1105 S Western Ave, Chicago, IL 60612", "city": "Chicago", "zip": "60612", "type": "cdph", "operator": "CDPH", "community_area": "Near West Side", "ward": 28, "phone": null, "source": "CDPH ArcGIS Harm_Reduction_Boxes (live)", "in_chicago": true}}, {"type": "Feature", "geometry": {"type": "Point", "coordinates": [-87.72555414951572, 41.986213522045176]}, "properties": {"name": "North River Mental Health Clinic", "address": "5801 N Pulaski Rd, Chicago, IL 60646", "city": "Chicago", "zip": "60646", "type": "cdph", "operator": "CDPH", "community_area": "North Park", "ward": 39, "phone": null, "source": "CDPH ArcGIS Harm_Reduction_Boxes (live)", "in_chicago": true}}, {"type": "Feature", "geometry": {"type": "Point", "coordinates": [-87.680792203871, 41.869605776761055]}, "properties": {"name": "West Side CDC", "address": "2160 W Ogden Ave, Chicago, IL 60612", "city": "Chicago", "zip": "60612", "type": "cdph", "operator": "CDPH", "community_area": "Near West Side", "ward": 28, "phone": null, "source": "CDPH ArcGIS Harm_Reduction_Boxes (live)", "in_chicago": true}}, {"type": "Feature", "geometry": {"type": "Point", "coordinates": [-87.61765192215819, 41.68554011048746]}, "properties": {"name": "Roseland STI Clinic", "address": "200 E 115 St, Chicago, IL 60628", "city": "Chicago", "zip": "60628", "type": "cdph", "operator": "CDPH", "community_area": "Roseland", "ward": 9, "phone": null, "source": "CDPH ArcGIS Harm_Reduction_Boxes (live)", "in_chicago": true}}, {"type": "Feature", "geometry": {"type": "Point", "coordinates": [-87.70647950418994, 41.88051564853395]}, "properties": {"name": "Community Service Center", "address": "10 S Kedzie Ave, Chicago, IL 60612", "city": "Chicago", "zip": "60612", "type": "dfss", "operator": "DFSS", "community_area": "East Garfield Park", "ward": 28, "phone": null, "source": "CDPH ArcGIS Harm_Reduction_Boxes (live)", "in_chicago": true}}, {"type": "Feature", "geometry": {"type": "Point", "coordinates": [-87.67652489626298, 41.86350027011336]}, "properties": {"name": "Damen Center", "address": "1340 S Damen Ave, Chicago, IL 60608", "city": "Chicago", "zip": "60608", "type": "cdph", "operator": "CDPH", "community_area": "Near West Side", "ward": 28, "phone": null, "source": "CDPH ArcGIS Harm_Reduction_Boxes (live)", "in_chicago": true}}, {"type": "Feature", "geometry": {"type": "Point", "coordinates": [-87.71257598466329, 41.846117364341985]}, "properties": {"name": "Ald. Rodriguez, 22nd Ward", "address": "2500 S Saint Louis Ave, Chicago, IL 60623", "city": "Chicago", "zip": "60623", "type": "ward_office", "operator": "Ward Office", "community_area": "South Lawndale", "ward": 22, "phone": null, "source": "CDPH ArcGIS Harm_Reduction_Boxes (live)", "in_chicago": true}}, {"type": "Feature", "geometry": {"type": "Point", "coordinates": [-87.73027760145798, 41.86623490460081]}, "properties": {"name": "Ald. Scott, 24th Ward", "address": "1158 S Keeler Ave, Chicago, IL 60624", "city": "Chicago", "zip": "60624", "type": "ward_office", "operator": "Ward Office", "community_area": "North Lawndale", "ward": 24, "phone": null, "source": "CDPH ArcGIS Harm_Reduction_Boxes (live)", "in_chicago": true}}, {"type": "Feature", "geometry": {"type": "Point", "coordinates": [-87.65918664589836, 41.9835020226316]}, "properties": {"name": "Ald. Manaa-Hoppenworth, 48th Ward", "address": "1129 W Bryn Mawr Ave, Chicago, IL 60660", "city": "Chicago", "zip": "60660", "type": "ward_office", "operator": "Ward Office", "community_area": "Edgewater", "ward": 48, "phone": null, "source": "CDPH ArcGIS Harm_Reduction_Boxes (live)", "in_chicago": true}}, {"type": "Feature", "geometry": {"type": "Point", "coordinates": [-87.62664955850151, 41.802885711547205]}, "properties": {"name": "Ald. Dowell, 3rd Ward", "address": "5046 S State St, Chicago, IL 60609", "city": "Chicago", "zip": "60609", "type": "ward_office", "operator": "Ward Office", "community_area": "Grand Boulevard", "ward": 3, "phone": null, "source": "CDPH ArcGIS Harm_Reduction_Boxes (live)", "in_chicago": true}}, {"type": "Feature", "geometry": {"type": "Point", "coordinates": [-87.65389449663498, 41.94073183170422]}, "properties": {"name": "Ald. Lawson, 44th Ward", "address": "3223 N Sheffield Ave, Chicago, IL 60657", "city": "Chicago", "zip": "60657", "type": "ward_office", "operator": "Ward Office", "community_area": "Lakeview", "ward": 44, "phone": null, "source": "CDPH ArcGIS Harm_Reduction_Boxes (live)", "in_chicago": true}}, {"type": "Feature", "geometry": {"type": "Point", "coordinates": [-87.65729515637105, 41.96466093211024]}, "properties": {"name": "Ald. Clay, 46th Ward", "address": "4544 N Broadway, Chicago, IL 60640", "city": "Chicago", "zip": "60640", "type": "ward_office", "operator": "Ward Office", "community_area": "Uptown", "ward": 46, "phone": null, "source": "CDPH ArcGIS Harm_Reduction_Boxes (live)", "in_chicago": true}}, {"type": "Feature", "geometry": {"type": "Point", "coordinates": [-87.71693105311559, 41.93471036193716]}, "properties": {"name": "Ald. Carlos Ramirez-Rosa, 35th Ward", "address": "2934 N Milwaukee Ave, Chicago, IL 60618", "city": "Chicago", "zip": "60618", "type": "ward_office", "operator": "Ward Office", "community_area": "Avondale", "ward": 35, "phone": null, "source": "CDPH ArcGIS Harm_Reduction_Boxes (live)", "in_chicago": true}}, {"type": "Feature", "geometry": {"type": "Point", "coordinates": [-87.68978568406533, 41.90275194083114]}, "properties": {"name": "Ald. Jessica Fuentes, 26th Ward", "address": "2511 W Division St, Chicago, IL 60622", "city": "Chicago", "zip": "60622", "type": "ward_office", "operator": "Ward Office", "community_area": "West Town", "ward": 26, "phone": null, "source": "CDPH ArcGIS Harm_Reduction_Boxes (live)", "in_chicago": true}}, {"type": "Feature", "geometry": {"type": "Point", "coordinates": [-87.76962388692301, 41.938725858082115]}, "properties": {"name": "Ald. Ruth Cruz, 30th Ward", "address": "5714 W Belmont Ave, Chicago, IL 60634", "city": "Chicago", "zip": "60634", "type": "ward_office", "operator": "Ward Office", "community_area": "Portage Park", "ward": 30, "phone": null, "source": "CDPH ArcGIS Harm_Reduction_Boxes (live)", "in_chicago": true}}, {"type": "Feature", "geometry": {"type": "Point", "coordinates": [-87.6485878745728, 41.92802522610883]}, "properties": {"name": "Ald. Timmy Knudsen, 43rd Ward", "address": "2523 N Halsted St, Chicago, IL 60614", "city": "Chicago", "zip": "60614", "type": "ward_office", "operator": "Ward Office", "community_area": "Lincoln Park", "ward": 43, "phone": null, "source": "CDPH ArcGIS Harm_Reduction_Boxes (live)", "in_chicago": true}}, {"type": "Feature", "geometry": {"type": "Point", "coordinates": [-87.70647950419001, 41.88051564853386]}, "properties": {"name": "Garfield Community Service Center", "address": "10 S Kedzie Ave, Chicago, IL 60612", "city": "Chicago", "zip": "60612", "type": "cdph_vending_machine", "operator": "CDPH Vending Machine", "community_area": "East Garfield Park ", "ward": 28, "phone": null, "source": "CDPH ArcGIS Harm_Reduction_Boxes (live)", "in_chicago": true}}, {"type": "Feature", "geometry": {"type": "Point", "coordinates": [-87.65420476740427, 41.95819100925656]}, "properties": {"name": "Uptown Library", "address": "929 W Buena Ave, Chicago, IL 60613", "city": "Chicago", "zip": "60613", "type": "cdph_vending_machine", "operator": "CDPH Vending Machine", "community_area": "Uptown", "ward": 46, "phone": null, "source": "CDPH ArcGIS Harm_Reduction_Boxes (live)", "in_chicago": true}}, {"type": "Feature", "geometry": {"type": "Point", "coordinates": [-87.62825815696422, 41.87628933368078]}, "properties": {"name": "Harold Washington Library", "address": "400 S State St, Chicago, IL 60605", "city": "Chicago", "zip": "60605", "type": "cdph_vending_machine", "operator": "CDPH Vending Machine", "community_area": "Loop", "ward": 4, "phone": null, "source": "CDPH ArcGIS Harm_Reduction_Boxes (live)", "in_chicago": true}}, {"type": "Feature", "geometry": {"type": "Point", "coordinates": [-87.62430197774721, 41.72190071920395]}, "properties": {"name": "95th/Dan Ryan Red Line Terminal", "address": "14 W 95th St, Chicago, IL 60628", "city": "Chicago", "zip": "60628", "type": "cdph_vending_machine", "operator": "CDPH Vending Machine", "community_area": "Roseland", "ward": 9, "phone": null, "source": "CDPH ArcGIS Harm_Reduction_Boxes (live)", "in_chicago": true}}, {"type": "Feature", "geometry": {"type": "Point", "coordinates": [-87.61765192215825, 41.68554011048736]}, "properties": {"name": "Roseland Community Triage Center", "address": "200 E 115th St, Chicago, IL 60628", "city": "Chicago", "zip": "60628", "type": "cdph_vending_machine", "operator": "CDPH Vending Machine", "community_area": "Roseland", "ward": 9, "phone": null, "source": "CDPH ArcGIS Harm_Reduction_Boxes (live)", "in_chicago": true}}, {"type": "Feature", "geometry": {"type": "Point", "coordinates": [-87.68190474166074, 41.95886343955279]}, "properties": {"name": "Ald. Martin, 47th Ward", "address": "4243 N Lincoln Ave, Chicago, IL 60618", "city": "Chicago", "zip": "60618", "type": "ward_office", "operator": "Ward Office", "community_area": "North Center", "ward": 47, "phone": null, "source": "CDPH ArcGIS Harm_Reduction_Boxes (live)", "in_chicago": true}}, {"type": "Feature", "geometry": {"type": "Point", "coordinates": [-87.66119913756313, 41.998416422401284]}, "properties": {"name": "Caroline Hedger", "address": "6400 N Sheridan Rd\n\n\t, Chicago, IL 60626", "city": "Chicago", "zip": "60626", "type": "cha:_senior_designated", "operator": "CHA: Senior Designated", "community_area": "Rogers Park", "ward": 49, "phone": null, "source": "CDPH ArcGIS Harm_Reduction_Boxes (live)", "in_chicago": true}}, {"type": "Feature", "geometry": {"type": "Point", "coordinates": [-87.7152486521932, 41.8893501047701]}, "properties": {"name": "Elizabeth Davis", "address": "440 N Drake Ave, Chicago, IL 60624", "city": "Chicago", "zip": "60624", "type": "cha:_senior_designated", "operator": "CHA: Senior Designated", "community_area": "Humboldt Park", "ward": 23, "phone": null, "source": "CDPH ArcGIS Harm_Reduction_Boxes (live)", "in_chicago": true}}, {"type": "Feature", "geometry": {"type": "Point", "coordinates": [-87.72400557188621, 41.88221092894083]}, "properties": {"name": "Fannie Emmanuel", "address": "3916 W Washington Blvd, Chicago, IL 60624", "city": "Chicago", "zip": "60624", "type": "cha:_senior_designated", "operator": "CHA: Senior Designated", "community_area": "West Garfield Park", "ward": 28, "phone": null, "source": "CDPH ArcGIS Harm_Reduction_Boxes (live)", "in_chicago": true}}, {"type": "Feature", "geometry": {"type": "Point", "coordinates": [-87.60788595858176, 41.81755008795899]}, "properties": {"name": "Judge Slater", "address": "740 E 43rd St, Chicago, IL 60653", "city": "Chicago", "zip": "60653", "type": "cha:_senior_designated", "operator": "CHA: Senior Designated", "community_area": "Grand Boulevard", "ward": 4, "phone": null, "source": "CDPH ArcGIS Harm_Reduction_Boxes (live)", "in_chicago": true}}, {"type": "Feature", "geometry": {"type": "Point", "coordinates": [-87.65584351091901, 41.8593288315574]}, "properties": {"name": "Las Americas", "address": "1611 S Racine Ave, Chicago, IL 60608", "city": "Chicago", "zip": "60608", "type": "cha:_senior_designated", "operator": "CHA: Senior Designated", "community_area": "Lower West Side", "ward": 25, "phone": null, "source": "CDPH ArcGIS Harm_Reduction_Boxes (live)", "in_chicago": true}}, {"type": "Feature", "geometry": {"type": "Point", "coordinates": [-87.62009943588458, 41.835246420758786]}, "properties": {"name": "Lincoln Perry", "address": "3245 S Prairie Ave, Chicago, IL 60616", "city": "Chicago", "zip": "60616", "type": "cha:_senior_designated", "operator": "CHA: Senior Designated", "community_area": "Douglas", "ward": 4, "phone": null, "source": "CDPH ArcGIS Harm_Reduction_Boxes (live)", "in_chicago": true}}, {"type": "Feature", "geometry": {"type": "Point", "coordinates": [-87.55387228848923, 41.729114768836176]}, "properties": {"name": "Mahalia Jackson", "address": "9177 S South Chicago Ave, Chicago, IL 60617", "city": "Chicago", "zip": "60617", "type": "cha:_senior_designated", "operator": "CHA: Senior Designated", "community_area": "Calumet Heights", "ward": 7, "phone": null, "source": "CDPH ArcGIS Harm_Reduction_Boxes (live)", "in_chicago": true}}, {"type": "Feature", "geometry": {"type": "Point", "coordinates": [-87.63455512650792, 41.81675203472105]}, "properties": {"name": "Minnie Ripperton", "address": "4250 S Princeton Ave, Chicago, IL 60609", "city": "Chicago", "zip": "60609", "type": "cha:_senior_designated", "operator": "CHA: Senior Designated", "community_area": "Fuller Park", "ward": 20, "phone": null, "source": "CDPH ArcGIS Harm_Reduction_Boxes (live)", "in_chicago": true}}, {"type": "Feature", "geometry": {"type": "Point", "coordinates": [-87.66828259452905, 41.880810122479865]}, "properties": {"name": "Patrick Sullivan", "address": "1633 W Madison St, Chicago, IL 60612", "city": "Chicago", "zip": "60612", "type": "cha:_senior_designated", "operator": "CHA: Senior Designated", "community_area": "Near West Side", "ward": 27, "phone": null, "source": "CDPH ArcGIS Harm_Reduction_Boxes (live)", "in_chicago": true}}, {"type": "Feature", "geometry": {"type": "Point", "coordinates": [-87.63135055559127, 41.77775324741573]}, "properties": {"name": "Vivian Carter", "address": "6401 S Yale Ave, Chicago, IL 60621", "city": "Chicago", "zip": "60621", "type": "cha:_senior_designated", "operator": "CHA: Senior Designated", "community_area": "Englewood", "ward": 6, "phone": null, "source": "CDPH ArcGIS Harm_Reduction_Boxes (live)", "in_chicago": true}}, {"type": "Feature", "geometry": {"type": "Point", "coordinates": [-87.60208982135198, 41.822796427234756]}, "properties": {"name": "Lake Park Place", "address": "3983 S Lake Park Ave, Chicago, IL 60653", "city": "Chicago", "zip": "60653", "type": "cha:_family_sites", "operator": "CHA: Family Sites", "community_area": "Oakland", "ward": 4, "phone": null, "source": "CDPH ArcGIS Harm_Reduction_Boxes (live)", "in_chicago": true}}, {"type": "Feature", "geometry": {"type": "Point", "coordinates": [-87.6940659117717, 41.84558591053155]}, "properties": {"name": "Lawndale Gardens", "address": "2537 S California Ave, Chicago, IL 60608", "city": "Chicago", "zip": "60608", "type": "cha:_family_sites", "operator": "CHA: Family Sites", "community_area": "South Lawndale", "ward": 24, "phone": null, "source": "CDPH ArcGIS Harm_Reduction_Boxes (live)", "in_chicago": true}}, {"type": "Feature", "geometry": {"type": "Point", "coordinates": [-87.62902640445246, 41.721993612216046]}, "properties": {"name": "Lowden Homes", "address": "200 W 95th St, Chicago, IL 60620", "city": "Chicago", "zip": "60620", "type": "cha:_family_sites", "operator": "CHA: Family Sites", "community_area": "Roseland", "ward": 9, "phone": null, "source": "CDPH ArcGIS Harm_Reduction_Boxes (live)", "in_chicago": true}}, {"type": "Feature", "geometry": {"type": "Point", "coordinates": [-87.67451833618182, 41.87248359324552]}, "properties": {"name": "Stroger Hospital", "address": "1969 W Ogden Ave, Chicago, IL 60612", "city": "Chicago", "zip": "60612", "type": "hospital", "operator": "Hospital", "community_area": "Near West Side", "ward": 27, "phone": null, "source": "CDPH ArcGIS Harm_Reduction_Boxes (live)", "in_chicago": true}}, {"type": "Feature", "geometry": {"type": "Point", "coordinates": [-87.67711011231985, 41.87459375776532]}, "properties": {"name": "CORE Center", "address": "2020 W Harrison St, Chicago, IL 60612", "city": "Chicago", "zip": "60612", "type": "hospital", "operator": "Hospital", "community_area": "Near West Side", "ward": 27, "phone": null, "source": "CDPH ArcGIS Harm_Reduction_Boxes (live)", "in_chicago": true}}, {"type": "Feature", "geometry": {"type": "Point", "coordinates": [-87.61351900356111, 41.80266853014963]}, "properties": {"name": "Provident Hospital", "address": "500 E 51st St, Chicago, IL 60615", "city": "Chicago", "zip": "60615", "type": "hospital", "operator": "Hospital", "community_area": "Grand Boulevard", "ward": 20, "phone": null, "source": "CDPH ArcGIS Harm_Reduction_Boxes (live)", "in_chicago": true}}, {"type": "Feature", "geometry": {"type": "Point", "coordinates": [-87.6416612277095, 41.87382006928597]}, "properties": {"name": "Circuit Court of Cook County", "address": "555 W Harrison St, Chicago, IL 60607", "city": "Chicago", "zip": "60607", "type": "circuit_court", "operator": "Circuit Court", "community_area": "Near West Side", "ward": 24, "phone": null, "source": "CDPH ArcGIS Harm_Reduction_Boxes (live)", "in_chicago": true}}, {"type": "Feature", "geometry": {"type": "Point", "coordinates": [-87.6956390855508, 41.843690317558575]}, "properties": {"name": "Circuit Court of Cook County", "address": "2650 S California Ave, Chicago, IL 60608", "city": "Chicago", "zip": "60608", "type": "circuit_court", "operator": "Circuit Court", "community_area": "South Lawndale", "ward": 24, "phone": null, "source": "CDPH ArcGIS Harm_Reduction_Boxes (live)", "in_chicago": true}}, {"type": "Feature", "geometry": {"type": "Point", "coordinates": [-87.98412097187479, 42.13435600466285]}, "properties": {"name": "CCH Arlington Heights Health Center", "address": "3250 N Arlington Heights Rd Suite 300, Chicago, IL 60004", "city": "Chicago", "zip": "60004", "type": "cch_center", "operator": "CCH Center", "community_area": null, "ward": null, "phone": null, "source": "CDPH ArcGIS Harm_Reduction_Boxes (live)", "in_chicago": false}}, {"type": "Feature", "geometry": {"type": "Point", "coordinates": [-87.74618799886882, 41.89530803505843]}, "properties": {"name": "CCH Austin Health Center", "address": "4800 W Chicago Ave, Chicago, IL 60651", "city": "Chicago", "zip": "60651", "type": "cch_center", "operator": "CCH Center", "community_area": "Austin", "ward": 37, "phone": null, "source": "CDPH ArcGIS Harm_Reduction_Boxes (live)", "in_chicago": true}}, {"type": "Feature", "geometry": {"type": "Point", "coordinates": [-87.76367432691099, 41.92363220574521]}, "properties": {"name": "CCH Belmont Cragin Health Center", "address": "5501 W Fullerton Ave, Chicago, IL 60639", "city": "Chicago", "zip": "60639", "type": "cch_center", "operator": "CCH Center", "community_area": "Belmont Cragin", "ward": 36, "phone": null, "source": "CDPH ArcGIS Harm_Reduction_Boxes (live)", "in_chicago": true}}, {"type": "Feature", "geometry": {"type": "Point", "coordinates": [-87.67972241841804, 41.66097633753095]}, "properties": {"name": "CCH Blue Island Health Center", "address": "12757 S Western Ave, Chicago, IL 60406", "city": "Chicago", "zip": "60406", "type": "cch_center", "operator": "CCH Center", "community_area": null, "ward": null, "phone": null, "source": "CDPH ArcGIS Harm_Reduction_Boxes (live)", "in_chicago": false}}, {"type": "Feature", "geometry": {"type": "Point", "coordinates": [-87.59648067160128, 41.50424073271125]}, "properties": {"name": "CCH Cottage Grove Health Center", "address": "1645 S Cottage Grove Ave, Chicago, IL", "city": "Chicago", "zip": "", "type": "cch_center", "operator": "CCH Center", "community_area": null, "ward": null, "phone": null, "source": "CDPH ArcGIS Harm_Reduction_Boxes (live)", "in_chicago": false}}, {"type": "Feature", "geometry": {"type": "Point", "coordinates": [-87.72499345714519, 41.847146665152266]}, "properties": {"name": "CCH Dr. Jorge Prieto Health Center", "address": "2424 S Pulaski Rd, Chicago, IL", "city": "Chicago", "zip": "", "type": "cch_center", "operator": "CCH Center", "community_area": "South Lawndale", "ward": 22, "phone": null, "source": "CDPH ArcGIS Harm_Reduction_Boxes (live)", "in_chicago": true}}, {"type": "Feature", "geometry": {"type": "Point", "coordinates": [-87.65336143121753, 41.76845180769989]}, "properties": {"name": "CCH Englewood Health Center", "address": "1135 W 69th St, Chicago, IL", "city": "Chicago", "zip": "", "type": "cch_center", "operator": "CCH Center", "community_area": "Englewood", "ward": 16, "phone": null, "source": "CDPH ArcGIS Harm_Reduction_Boxes (live)", "in_chicago": true}}, {"type": "Feature", "geometry": {"type": "Point", "coordinates": [-87.67506200833715, 41.87171441844073]}, "properties": {"name": "CCH General Medicine Clinic", "address": "1950 W Polk St 3rd Floor, Chicago, IL", "city": "Chicago", "zip": "", "type": "cch_center", "operator": "CCH Center", "community_area": "Near West Side", "ward": 27, "phone": null, "source": "CDPH ArcGIS Harm_Reduction_Boxes (live)", "in_chicago": true}}, {"type": "Feature", "geometry": {"type": "Point", "coordinates": [-87.77332931957093, 41.846621033938106]}, "properties": {"name": "CCH Morton East Adolescent Health Center", "address": "2423 S Austin Blvd, Chicago, IL", "city": "Chicago", "zip": "", "type": "cch_center", "operator": "CCH Center", "community_area": null, "ward": null, "phone": null, "source": "CDPH ArcGIS Harm_Reduction_Boxes (live)", "in_chicago": false}}, {"type": "Feature", "geometry": {"type": "Point", "coordinates": [-87.80539561809304, 41.855616976811916]}, "properties": {"name": "CCH North Riverside Health Center", "address": "1800 S Harlem Ave Suite A, Chicago, IL", "city": "Chicago", "zip": "", "type": "cch_center", "operator": "CCH Center", "community_area": null, "ward": null, "phone": null, "source": "CDPH ArcGIS Harm_Reduction_Boxes (live)", "in_chicago": false}}, {"type": "Feature", "geometry": {"type": "Point", "coordinates": [-87.69976078226321, 41.6486896706038]}, "properties": {"name": "CCH Robbins Health Center", "address": "13450 S Kedzie Ave, Chicago, IL", "city": "Chicago", "zip": "", "type": "cch_center", "operator": "CCH Center", "community_area": null, "ward": null, "phone": null, "source": "CDPH ArcGIS Harm_Reduction_Boxes (live)", "in_chicago": false}}, {"type": "Feature", "geometry": {"type": "Point", "coordinates": [-87.62931421348264, 41.84017885461974]}, "properties": {"name": "Dearborn Homes", "address": "2960 S Federal St, Chicago, IL 60616", "city": "Chicago", "zip": "60616", "type": "cha:_family_sites", "operator": "CHA: Family Sites", "community_area": "Douglas", "ward": 3, "phone": null, "source": "CDPH ArcGIS Harm_Reduction_Boxes (live)", "in_chicago": true}}, {"type": "Feature", "geometry": {"type": "Point", "coordinates": [-87.63164913020634, 41.82630251001065]}, "properties": {"name": "Wentworth Homes", "address": "3770 S Wentworth Ave, Chicago, IL 60609", "city": "Chicago", "zip": "60609", "type": "cha:_family_sites", "operator": "CHA: Family Sites", "community_area": "Armour Square", "ward": 3, "phone": null, "source": "CDPH ArcGIS Harm_Reduction_Boxes (live)", "in_chicago": true}}, {"type": "Feature", "geometry": {"type": "Point", "coordinates": [-87.66216441496368, 41.86470066264702]}, "properties": {"name": "ABLA", "address": "1324 S Loomis St, Chicago, IL 60608", "city": "Chicago", "zip": "60608", "type": "cha:_family_sites", "operator": "CHA: Family Sites", "community_area": "Near West Side", "ward": 28, "phone": null, "source": "CDPH ArcGIS Harm_Reduction_Boxes (live)", "in_chicago": true}}, {"type": "Feature", "geometry": {"type": "Point", "coordinates": [-87.64217216566138, 41.89746434770169]}, "properties": {"name": "Cabrini Homes", "address": "530 W Pearson St, Chicago, IL 60610", "city": "Chicago", "zip": "60610", "type": "cha:_family_sites", "operator": "CHA: Family Sites", "community_area": "Near North Side", "ward": 27, "phone": null, "source": "CDPH ArcGIS Harm_Reduction_Boxes (live)", "in_chicago": true}}, {"type": "Feature", "geometry": {"type": "Point", "coordinates": [-87.56420817495814, 41.702554689866076]}, "properties": {"name": "Trumbull Park", "address": "2437 E 106th St, Chicago, IL 60617", "city": "Chicago", "zip": "60617", "type": "cha:_family_sites", "operator": "CHA: Family Sites", "community_area": "South Deering", "ward": 10, "phone": null, "source": "CDPH ArcGIS Harm_Reduction_Boxes (live)", "in_chicago": true}}, {"type": "Feature", "geometry": {"type": "Point", "coordinates": [-87.60228085353737, 41.821651450476836]}, "properties": {"name": "Judge Green Apartments", "address": "4030 S Lake Park Ave, Chicago, IL 60653", "city": "Chicago", "zip": "60653", "type": "cha:_senior_designated", "operator": "CHA: Senior Designated", "community_area": "Oakland", "ward": 4, "phone": null, "source": "CDPH ArcGIS Harm_Reduction_Boxes (live)", "in_chicago": true}}, {"type": "Feature", "geometry": {"type": "Point", "coordinates": [-87.65523819288026, 41.96865321076147]}, "properties": {"name": "ICA", "address": "4750 N Sheridan Rd, Chicago, IL 60640", "city": "Chicago", "zip": "60640", "type": "newsstand", "operator": "Newsstand", "community_area": "Uptown", "ward": 46, "phone": null, "source": "CDPH ArcGIS Harm_Reduction_Boxes (live)", "in_chicago": true}}, {"type": "Feature", "geometry": {"type": "Point", "coordinates": [-87.65202935897953, 41.965138568570566]}, "properties": {"name": "Dept. of Family and Supportive Services", "address": "845 W Wilson Ave, Chicago, IL 60640", "city": "Chicago", "zip": "60640", "type": "newsstand", "operator": "Newsstand", "community_area": "Uptown", "ward": 46, "phone": null, "source": "CDPH ArcGIS Harm_Reduction_Boxes (live)", "in_chicago": true}}, {"type": "Feature", "geometry": {"type": "Point", "coordinates": [-87.6590451488747, 41.96650803666284]}, "properties": {"name": "Cornerstone Community Shelter", "address": "4628 N Clifton Ave, Chicago, IL 60640", "city": "Chicago", "zip": "60640", "type": "newsstand", "operator": "Newsstand", "community_area": "Uptown", "ward": 46, "phone": null, "source": "CDPH ArcGIS Harm_Reduction_Boxes (live)", "in_chicago": true}}, {"type": "Feature", "geometry": {"type": "Point", "coordinates": [-87.65410393364164, 41.95399592465488]}, "properties": {"name": "Nourishing Hope", "address": "3945 N Sheridan Rd, Chicago, IL 60613", "city": "Chicago", "zip": "60613", "type": "newsstand", "operator": "Newsstand", "community_area": "Lakeview", "ward": 46, "phone": null, "source": "CDPH ArcGIS Harm_Reduction_Boxes (live)", "in_chicago": true}}, {"type": "Feature", "geometry": {"type": "Point", "coordinates": [-87.65759327635648, 41.96428056101128]}, "properties": {"name": "Wilson Red Line Terminal", "address": "Chicago, IL", "city": "Chicago", "zip": "", "type": "cch_vending_machines", "operator": "CCH Vending Machines", "community_area": "Uptown", "ward": 46, "phone": null, "source": "CDPH ArcGIS Harm_Reduction_Boxes (live)", "in_chicago": true}}, {"type": "Feature", "geometry": {"type": "Point", "coordinates": [-87.80318178899097, 41.88685614883221]}, "properties": {"name": "Harlem Green Line Terminal", "address": "Chicago, IL", "city": "Chicago", "zip": "", "type": "cch_vending_machines", "operator": "CCH Vending Machines", "community_area": null, "ward": null, "phone": null, "source": "CDPH ArcGIS Harm_Reduction_Boxes (live)", "in_chicago": false}}, {"type": "Feature", "geometry": {"type": "Point", "coordinates": [-87.76089807644661, 41.97064199985556]}, "properties": {"name": "Jefferson Park Blue Line Terminal", "address": "Chicago, IL", "city": "Chicago", "zip": "", "type": "cch_vending_machines", "operator": "CCH Vending Machines", "community_area": "Jefferson Park", "ward": 45, "phone": null, "source": "CDPH ArcGIS Harm_Reduction_Boxes (live)", "in_chicago": true}}, {"type": "Feature", "geometry": {"type": "Point", "coordinates": [-87.71488603641671, 41.85399979987138]}, "properties": {"name": "Central Park Pink Line Terminal", "address": "Chicago, IL", "city": "Chicago", "zip": "", "type": "cch_vending_machines", "operator": "CCH Vending Machines", "community_area": "North Lawndale", "ward": 24, "phone": null, "source": "CDPH ArcGIS Harm_Reduction_Boxes (live)", "in_chicago": true}}, {"type": "Feature", "geometry": {"type": "Point", "coordinates": [-87.6310315404715, 41.8103459746631]}, "properties": {"name": "47th St Red Line Terminal", "address": "Chicago, IL", "city": "Chicago", "zip": "", "type": "cch_vending_machines", "operator": "CCH Vending Machines", "community_area": "Fuller Park", "ward": 20, "phone": null, "source": "CDPH ArcGIS Harm_Reduction_Boxes (live)", "in_chicago": true}}, {"type": "Feature", "geometry": {"type": "Point", "coordinates": [-87.8084498091, 41.708057864045]}, "properties": {"name": "Bridgeview Courthouse", "address": "10220 S 76th Ave, Bridgeview, IL 60455", "city": "Bridgeview", "zip": "60455", "type": "vending_machine", "operator": "Cook County Health", "source": "cookcountyhealth.org/naloxone 2026", "in_chicago": false}}, {"type": "Feature", "geometry": {"type": "Point", "coordinates": [-87.694431939613, 41.589817441995]}, "properties": {"name": "Markham Courthouse", "address": "16501 Kedzie Ave, Markham, IL 60428", "city": "Markham", "zip": "60428", "type": "vending_machine", "operator": "Cook County Health", "source": "cookcountyhealth.org/naloxone 2026", "in_chicago": false}}, {"type": "Feature", "geometry": {"type": "Point", "coordinates": [-87.826273842884, 41.874109909381]}, "properties": {"name": "Maywood Courthouse", "address": "1311 Maybrook Dr, Maywood, IL 60153", "city": "Maywood", "zip": "60153", "type": "vending_machine", "operator": "Cook County Health", "source": "cookcountyhealth.org/naloxone 2026", "in_chicago": false}}, {"type": "Feature", "geometry": {"type": "Point", "coordinates": [-88.006343103373, 42.088264391335]}, "properties": {"name": "Rolling Meadows Courthouse", "address": "2121 Euclid Ave, Rolling Meadows, IL 60008", "city": "Rolling Meadows", "zip": "60008", "type": "vending_machine", "operator": "Cook County Health", "source": "cookcountyhealth.org/naloxone 2026", "in_chicago": false}}, {"type": "Feature", "geometry": {"type": "Point", "coordinates": [-87.763733367197, 42.062692418025]}, "properties": {"name": "Skokie Courthouse", "address": "5600 Old Orchard Rd, Skokie, IL 60077", "city": "Skokie", "zip": "60077", "type": "vending_machine", "operator": "Cook County Health", "source": "cookcountyhealth.org/naloxone 2026", "in_chicago": false}}, {"type": "Feature", "geometry": {"type": "Point", "coordinates": [-87.673479803556, 42.018989026789]}, "properties": {"name": "Howard Red Line Station", "address": "7519 N Paulina St, Chicago, IL 60626", "city": "Chicago", "zip": "60626", "type": "vending_machine", "operator": "Cook County Health / CTA", "source": "cookcountyhealth.org/naloxone 2026", "in_chicago": true}}, {"type": "Feature", "geometry": {"type": "Point", "coordinates": [-87.805045425381, 41.886500242589]}, "properties": {"name": "Harlem/Lake Green Line Station", "address": "1 Harlem Ave, Oak Park, IL 60130", "city": "Oak Park", "zip": "60130", "type": "vending_machine", "operator": "Cook County Health / CTA", "source": "CCH/CTA pilot Sep 2025", "in_chicago": false}}, {"type": "Feature", "geometry": {"type": "Point", "coordinates": [-87.725890915241, 41.88585992578]}, "properties": {"name": "West Side Heroin/Opioid Task Force", "address": "310 N Pulaski Rd, Chicago, IL 60624", "city": "Chicago", "zip": "60624", "type": "harm_reduction_org", "operator": "West Side Task Force", "source": "Block Club Chicago Jan 2026", "in_chicago": true}}, {"type": "Feature", "geometry": {"type": "Point", "coordinates": [-87.539583389393, 41.598834084913]}, "properties": {"name": "Ajeeba Hair Design", "address": "1254 Burnham Ave, Calumet City, IL 60409", "city": "Calumet City", "zip": "60409", "type": "distribution_box", "operator": "Cook County", "source": "Cook County map", "in_chicago": false}}, {"type": "Feature", "geometry": {"type": "Point", "coordinates": [-88.105367973929, 42.04833030304]}, "properties": {"name": "AristaCare", "address": "1056 W Golf Rd, Hoffman Estates, IL 60169", "city": "Hoffman Estates", "zip": "60169", "type": "distribution_box", "operator": "Cook County", "source": "Cook County map", "in_chicago": false}}, {"type": "Feature", "geometry": {"type": "Point", "coordinates": [-87.894527127534, 41.888999701677]}, "properties": {"name": "Bellwood Liquor and Grocery", "address": "5001 Saint Charles Rd, Bellwood, IL 60104", "city": "Bellwood", "zip": "60104", "type": "distribution_box", "operator": "Cook County", "source": "Cook County map", "in_chicago": false}}, {"type": "Feature", "geometry": {"type": "Point", "coordinates": [-87.681685755266, 41.657088717564]}, "properties": {"name": "Blue Island Public Library", "address": "2433 York Street, Blue Island, IL 60406", "city": "Blue Island", "zip": "60406", "type": "library", "operator": "Cook County", "source": "Cook County map", "in_chicago": false}}, {"type": "Feature", "geometry": {"type": "Point", "coordinates": [-87.883795060232, 42.045203363516]}, "properties": {"name": "Center of Concern", "address": "1665 Elk Blvd, Des Plaines, IL 60016", "city": "Des Plaines", "zip": "60016", "type": "distribution_box", "operator": "Cook County", "source": "Cook County map", "in_chicago": false}}, {"type": "Feature", "geometry": {"type": "Point", "coordinates": [-87.778107459363, 41.702543375523]}, "properties": {"name": "Chicago Ridge Library", "address": "10400 Oxford Ave, Chicago Ridge, IL 60415", "city": "Chicago Ridge", "zip": "60415", "type": "library", "operator": "Cook County", "source": "Cook County map", "in_chicago": false}}, {"type": "Feature", "geometry": {"type": "Point", "coordinates": [-87.757348416492, 41.845555023979]}, "properties": {"name": "Corazon Community Services", "address": "5339 W 25th St, Cicero, IL 60804", "city": "Cicero", "zip": "60804", "type": "distribution_box", "operator": "Cook County", "source": "Cook County map", "in_chicago": false}}, {"type": "Feature", "geometry": {"type": "Point", "coordinates": [-87.847021789886, 41.878864121928]}, "properties": {"name": "DA Candy Corner", "address": "1117 Madison St, Maywood, IL 60153", "city": "Maywood", "zip": "60153", "type": "distribution_box", "operator": "Cook County", "source": "Cook County map", "in_chicago": false}}, {"type": "Feature", "geometry": {"type": "Point", "coordinates": [-87.869569474098, 41.910382537121]}, "properties": {"name": "Debbie's Darn Good Deals", "address": "1950 S Ruby Street, Melrose Park, IL 60160", "city": "Melrose Park", "zip": "60160", "type": "distribution_box", "operator": "Cook County", "source": "Cook County map", "in_chicago": false}}, {"type": "Feature", "geometry": {"type": "Point", "coordinates": [-87.74761030857, 41.862132165573]}, "properties": {"name": "Drama Beauty Cicero", "address": "4909 W 14th St, Cicero, IL 60804", "city": "Cicero", "zip": "60804", "type": "distribution_box", "operator": "Cook County", "source": "Cook County map", "in_chicago": false}}, {"type": "Feature", "geometry": {"type": "Point", "coordinates": [-87.799961774856, 41.857719863655]}, "properties": {"name": "Express Food Mart", "address": "7026 16th St, Berwyn, IL 60402", "city": "Berwyn", "zip": "60402", "type": "distribution_box", "operator": "Cook County", "source": "Cook County map", "in_chicago": false}}, {"type": "Feature", "geometry": {"type": "Point", "coordinates": [-87.833788089732, 41.875853763573]}, "properties": {"name": "Healthy Soul Talk LLC", "address": "1701 S 1st Ave, Maywood, IL 60153", "city": "Maywood", "zip": "60153", "type": "distribution_box", "operator": "Cook County", "source": "Cook County map", "in_chicago": false}}, {"type": "Feature", "geometry": {"type": "Point", "coordinates": [-87.550104384419, 41.565769750993]}, "properties": {"name": "Lansing Public Library", "address": "2750 Indiana Ave, Lansing, IL 60438", "city": "Lansing", "zip": "60438", "type": "library", "operator": "Cook County", "source": "Cook County map", "in_chicago": false}}, {"type": "Feature", "geometry": {"type": "Point", "coordinates": [-87.839176098032, 41.888731881502]}, "properties": {"name": "New Era Restaurant", "address": "15 N 5th Ave, Maywood, IL 60153", "city": "Maywood", "zip": "60153", "type": "distribution_box", "operator": "Cook County", "source": "Cook County map", "in_chicago": false}}, {"type": "Feature", "geometry": {"type": "Point", "coordinates": [-87.800816223382, 42.026438181839]}, "properties": {"name": "Niles-Maine District Library", "address": "6960 W Oakton St, Niles, IL 60714", "city": "Niles", "zip": "60714", "type": "library", "operator": "Cook County", "source": "Cook County map", "in_chicago": false}}, {"type": "Feature", "geometry": {"type": "Point", "coordinates": [-87.752743465778, 41.721098278495]}, "properties": {"name": "Oak Lawn Public Library", "address": "9427 Raymond Avenue, Oak Lawn, IL 60453", "city": "Oak Lawn", "zip": "60453", "type": "library", "operator": "Cook County", "source": "Cook County map", "in_chicago": false}}, {"type": "Feature", "geometry": {"type": "Point", "coordinates": [-87.639079790256, 41.491498154159]}, "properties": {"name": "Perros Brothers South Chicago Heights", "address": "2601 Chicago Rd, South Chicago Heights, IL 60411", "city": "South Chicago Heights", "zip": "60411", "type": "distribution_box", "operator": "Cook County", "source": "Cook County map", "in_chicago": false}}, {"type": "Feature", "geometry": {"type": "Point", "coordinates": [-87.711431974491, 41.506182422552]}, "properties": {"name": "Perros Brothers Olympia Fields", "address": "3770 Lincoln Highway, Olympia Fields, IL 60461", "city": "Olympia Fields", "zip": "60461", "type": "distribution_box", "operator": "Cook County", "source": "Cook County map", "in_chicago": false}}, {"type": "Feature", "geometry": {"type": "Point", "coordinates": [-87.841542014686, 41.883249133784]}, "properties": {"name": "RayMil Consulting", "address": "518 S 7th Avenue, Maywood, IL 60153", "city": "Maywood", "zip": "60153", "type": "distribution_box", "operator": "Cook County", "source": "Cook County map", "in_chicago": false}}, {"type": "Feature", "geometry": {"type": "Point", "coordinates": [-87.623569092342, 41.508183971834]}, "properties": {"name": "Respond Now", "address": "1250 Portland Ave, Chicago Heights, IL 60411", "city": "Chicago Heights", "zip": "60411", "type": "harm_reduction_org", "operator": "Cook County", "source": "Cook County map", "in_chicago": false}}, {"type": "Feature", "geometry": {"type": "Point", "coordinates": [-87.627334842574, 41.633448892629]}, "properties": {"name": "Riverdale Public Library", "address": "208 W 144th St, Riverdale, IL 60827", "city": "Riverdale", "zip": "60827", "type": "library", "operator": "Cook County", "source": "Cook County map", "in_chicago": false}}, {"type": "Feature", "geometry": {"type": "Point", "coordinates": [-87.753928491104, 41.84834403493]}, "properties": {"name": "Salvation Army Community Ctr", "address": "2337 S Laramie Ave, Cicero, IL 60804", "city": "Cicero", "zip": "60804", "type": "distribution_box", "operator": "Cook County", "source": "Cook County map", "in_chicago": false}}, {"type": "Feature", "geometry": {"type": "Point", "coordinates": [-87.940059018265, 42.032454841687]}, "properties": {"name": "Self-Help Closet & Pantry", "address": "769 Holiday Ln, Des Plaines, IL 60016", "city": "Des Plaines", "zip": "60016", "type": "distribution_box", "operator": "Cook County", "source": "Cook County map", "in_chicago": false}}, {"type": "Feature", "geometry": {"type": "Point", "coordinates": [-87.71970403744, 41.592334833743]}, "properties": {"name": "South Suburban College Oak Forest", "address": "16333 S Kilbourn Ave, Oak Forest, IL 60452", "city": "Oak Forest", "zip": "60452", "type": "distribution_box", "operator": "Cook County", "source": "Cook County map", "in_chicago": false}}, {"type": "Feature", "geometry": {"type": "Point", "coordinates": [-87.617117095189, 41.606969931391]}, "properties": {"name": "South Suburban College South Holland", "address": "15800 State St, South Holland, IL 60473", "city": "South Holland", "zip": "60473", "type": "distribution_box", "operator": "Cook County", "source": "Cook County map", "in_chicago": false}}, {"type": "Feature", "geometry": {"type": "Point", "coordinates": [-87.663468799405, 41.573195095262]}, "properties": {"name": "South Suburban Council", "address": "1909 Cheker Square, Hazel Crest, IL 60429", "city": "Hazel Crest", "zip": "60429", "type": "harm_reduction_org", "operator": "Cook County", "source": "Cook County map", "in_chicago": false}}, {"type": "Feature", "geometry": {"type": "Point", "coordinates": [-87.634515316832, 41.475183920393]}, "properties": {"name": "Steger Library", "address": "54 E 31st St, Steger, IL 60475", "city": "Steger", "zip": "60475", "type": "library", "operator": "Cook County", "source": "Cook County map", "in_chicago": false}}, {"type": "Feature", "geometry": {"type": "Point", "coordinates": [-87.854535319245, 41.864079675001]}, "properties": {"name": "The Print Labb", "address": "1819 Roosevelt Rd, Broadview, IL 60155", "city": "Broadview", "zip": "60155", "type": "distribution_box", "operator": "Cook County", "source": "Cook County map", "in_chicago": false}}, {"type": "Feature", "geometry": {"type": "Point", "coordinates": [-87.611913656167, 41.568342903026]}, "properties": {"name": "Thornton Public Library", "address": "115 E Margaret St, Thornton, IL 60476", "city": "Thornton", "zip": "60476", "type": "library", "operator": "Cook County", "source": "Cook County map", "in_chicago": false}}, {"type": "Feature", "geometry": {"type": "Point", "coordinates": [-87.784476932045, 41.576309210264]}, "properties": {"name": "Tinley Park Apothecary", "address": "17320 Oak Park Ave, Tinley Park, IL 60477", "city": "Tinley Park", "zip": "60477", "type": "distribution_box", "operator": "Cook County", "source": "Cook County map", "in_chicago": false}}, {"type": "Feature", "geometry": {"type": "Point", "coordinates": [-87.81046880392, 41.562744249948]}, "properties": {"name": "Tinley Park Public Library", "address": "7851 Timber Dr, Tinley Park, IL 60477", "city": "Tinley Park", "zip": "60477", "type": "library", "operator": "Cook County", "source": "Cook County map", "in_chicago": false}}, {"type": "Feature", "geometry": {"type": "Point", "coordinates": [-87.574461020646, 41.48766566055]}, "properties": {"name": "Tony's Food & Liquor", "address": "1709 E Sauk Trl, Chicago Heights, IL 60411", "city": "Chicago Heights", "zip": "60411", "type": "distribution_box", "operator": "Cook County", "source": "Cook County map", "in_chicago": false}}, {"type": "Feature", "geometry": {"type": "Point", "coordinates": [-87.840240557752, 41.914451224506]}, "properties": {"name": "Triton College", "address": "2000 North 5th Avenue, River Grove, IL 60171", "city": "River Grove", "zip": "60171", "type": "distribution_box", "operator": "Cook County", "source": "Cook County map", "in_chicago": false}}, {"type": "Feature", "geometry": {"type": "Point", "coordinates": [-87.872214312907, 41.881785935083]}, "properties": {"name": "Village of Bellwood", "address": "3200 Washington Blvd, Bellwood, IL 60104", "city": "Bellwood", "zip": "60104", "type": "government", "operator": "Cook County", "source": "Cook County map", "in_chicago": false}}, {"type": "Feature", "geometry": {"type": "Point", "coordinates": [-87.839223723109, 41.88615576537]}, "properties": {"name": "Village of Maywood Masonic Temple", "address": "200 S 5th Ave, Maywood, IL 60153", "city": "Maywood", "zip": "60153", "type": "government", "operator": "Cook County", "source": "Cook County map", "in_chicago": false}}, {"type": "Feature", "geometry": {"type": "Point", "coordinates": [-87.708722713681, 41.641867001258]}, "properties": {"name": "William Leonard Library of Robbins", "address": "13820 Central Park Ave, Robbins, IL 60472", "city": "Robbins", "zip": "60472", "type": "library", "operator": "Cook County", "source": "Cook County map", "in_chicago": false}}, {"type": "Feature", "geometry": {"type": "Point", "coordinates": [-88.048859217278, 42.059585734852]}, "properties": {"name": "Commissioner Kevin Morrison Office", "address": "1325 Wiley Road Suite 141, Schaumburg, IL 60173", "city": "Schaumburg", "zip": "60173", "type": "government", "operator": "Cook County", "source": "Cook County map", "in_chicago": false}}, {"type": "Feature", "geometry": {"type": "Point", "coordinates": [-87.691794769706, 41.600726739579]}, "properties": {"name": "Commissioner Kisha McCaskill Office", "address": "3039 W 159th Street, Markham, IL 60428", "city": "Markham", "zip": "60428", "type": "government", "operator": "Cook County", "source": "Cook County map", "in_chicago": false}}]}